[{"OBJECT_NAME":"JIAOTONG VDES","OBJECT_ID":"2022-164A","EPOCH":"2026-03-10T00:04:46.178400","MEAN_MOTION":14.45999441,"ECCENTRICITY":0.00085577,"INCLINATION":98.2515,"RA_OF_ASC_NODE":90.8897,"ARG_OF_PERICENTER":269.1792,"MEAN_ANOMALY":90.8419,"EPHEMERIS_TYPE":0,"CLASSIFICATION_TYPE":"U","NORAD_CAT_ID":54588,"ELEMENT_SET_NO":999,"REV_AT_EPOCH":17174,"BSTAR":0.00012084635,"MEAN_MOTION_DOT":3.88e-6,"MEAN_MOTION_DDOT":0},{"OBJECT_NAME":"FENGYUN 1C DEB","OBJECT_ID":"1999-025BZH","EPOCH":"2026-03-09T20:22:23.869632","MEAN_MOTION":14.38621263,"ECCENTRICITY":0.00258598,"INCLINATION":98.9398,"RA_OF_ASC_NODE":136.3323,"ARG_OF_PERICENTER":103.4212,"MEAN_ANOMALY":325.3227,"EPHEMERIS_TYPE":0,"CLASSIFICATION_TYPE":"U","NORAD_CAT_ID":31566,"ELEMENT_SET_NO":999,"REV_AT_EPOCH":97643,"BSTAR":0.001937186,"MEAN_MOTION_DOT":5.913e-5,"MEAN_MOTION_DDOT":0}]
